NORAD_CAT_ID,OBJECT_NAME,OBJECT_TYPE,EPOCH,MEAN_MOTION,ECCENTRICITY,INCLINATION,RA_OF_ASC_NODE,ARG_OF_PERICENTER,MEAN_ANOMALY,BSTAR,MEAN_MOTION_DOT,MEAN_MOTION_DDOT,TLE_LINE0,TLE_LINE1,TLE_LINE2,SEMIMAJOR_AXIS,PERIOD,APOGEE,PERIGEE,DECAYED
49145.0,STARLINK-3119,PAYLOAD,2024-07-16 13:03:33,14.9833358,0.0002928,70.0017,330.1429,270.4133,89.669,4.0569e-05,3.91e-06,0.0,0 STARLINK-3119,1 49145U 21082R   24198.54413293  .00000391  00000-0  40569-4 0  9992,2 49145  70.0017 330.1429 0002928 270.4133  89.6690 14.98333580156917,6950.182,96.107,574.082,570.012,0.0
49145.0,STARLINK-3119,PAYLOAD,2024-07-16 14:39:41,14.98333852,0.0002936,70.0018,329.9748,270.7444,89.3379,5.8184e-05,6.01e-06,0.0,0 STARLINK-3119,1 49145U 21082R   24198.61089222  .00000601  00000-0  58184-4 0  9997,2 49145  70.0018 329.9748 0002936 270.7444  89.3379 14.98333852156929,6950.181,96.107,574.087,570.005,0.0
49145.0,STARLINK-3119,PAYLOAD,2024-07-16 16:15:48,14.98336884,0.0002872,70.0018,329.8065,269.9265,90.1565,8.8793e-05,9.67e-06,0.0,0 STARLINK-3119,1 49145U 21082R   24198.67764928  .00000967  00000-0  88793-4 0  9990,2 49145  70.0018 329.8065 0002872 269.9265  90.1565 14.98336884156936,6950.172,96.107,574.033,570.041,0.0
49145.0,STARLINK-3119,PAYLOAD,2024-07-17 13:05:34,14.9832378,0.0003037,70.0011,327.6187,262.0364,98.045,3.8187e-05,3.63e-06,0.0,0 STARLINK-3119,1 49145U 21082R   24199.54553895  .00000363  00000-0  38187-4 0  9998,2 49145  70.0011 327.6187 0003037 262.0364  98.0450 14.98323780157064,6950.212,96.107,574.188,569.966,0.0
49145.0,STARLINK-3119,PAYLOAD,2024-07-17 14:41:42,14.98324528,0.0003062,70.0009,327.4499,266.6193,93.4615,1.1778e-05,4.8e-07,0.0,0 STARLINK-3119,1 49145U 21082R   24199.61229954  .00000048  00000-0  11778-4 0  9999,2 49145  70.0009 327.4499 0003062 266.6193  93.4615 14.98324528157077,6950.21,96.107,574.203,569.947,0.0
49145.0,STARLINK-3119,PAYLOAD,2024-07-17 17:53:58,14.98329358,0.0003042,70.001,327.1131,267.1067,92.9744,3.1013e-05,2.77e-06,0.0,0 STARLINK-3119,1 49145U 21082R   24199.74581646  .00000277  00000-0  31013-4 0  9990,2 49145  70.0010 327.1131 0003042 267.1067  92.9744 14.98329358157098,6950.195,96.107,574.174,569.946,0.0
49145.0,STARLINK-3119,PAYLOAD,2024-07-18 13:07:35,14.98329156,0.000293,70.0013,325.0937,267.8798,92.2026,3.6135e-05,3.38e-06,0.0,0 STARLINK-3119,1 49145U 21082R   24200.54693794  .00000338  00000-0  36135-4 0  9997,2 49145  70.0013 325.0937 0002930 267.8798  92.2026 14.98329156157211,6950.196,96.107,574.097,570.024,0.0
49145.0,STARLINK-3119,PAYLOAD,2024-07-18 14:43:43,14.98336855,0.0002862,70.0012,324.9243,263.524,96.5594,5.2749e-05,5.37e-06,0.0,0 STARLINK-3119,1 49145U 21082R   24200.61369227  .00000537  00000-0  52749-4 0  9996,2 49145  70.0012 324.9243 0002862 263.5240  96.5594 14.98336855157229,6950.172,96.107,574.026,570.048,0.0
49145.0,STARLINK-3119,PAYLOAD,2024-07-18 17:55:58,14.9833764,0.0002752,70.0014,324.5878,261.3243,98.7604,9.9625e-05,1.096e-05,0.0,0 STARLINK-3119,1 49145U 21082R   24200.74721062  .00001096  00000-0  99625-4 0  9994,2 49145  70.0014 324.5878 0002752 261.3243  98.7604 14.98337640157249,6950.169,96.107,573.947,570.122,0.0
49145.0,STARLINK-3119,PAYLOAD,2024-07-19 13:09:36,14.98325068,0.0002724,70.0018,322.5686,261.0356,99.0494,9.9902e-05,1.099e-05,0.0,0 STARLINK-3119,1 49145U 21082R   24201.54833813  .00001099  00000-0  99902-4 0  9992,2 49145  70.0018 322.5686 0002724 261.0356  99.0494 14.98325068157364,6950.208,96.107,573.966,570.18,0.0
49145.0,STARLINK-3119,PAYLOAD,2024-07-19 14:45:44,14.98327367,0.000295,70.0018,322.4027,268.1105,91.9716,0.00015218,1.723e-05,0.0,0 STARLINK-3119,1 49145U 21082R   24201.61509602  .00001723  00000-0  15218-3 0  9997,2 49145  70.0018 322.4027 0002950 268.1105  91.9716 14.98327367157376,6950.201,96.107,574.116,570.016,0.0
49145.0,STARLINK-3119,PAYLOAD,2024-07-19 17:58:00,14.9832944,0.0002914,70.0019,322.0662,267.9696,92.113,0.00016761,1.907e-05,0.0,0 STARLINK-3119,1 49145U 21082R   24201.74861441  .00001907  00000-0  16761-3 0  9991,2 49145  70.0019 322.0662 0002914 267.9696  92.1130 14.98329440157399,6950.195,96.107,574.085,570.034,0.0
49145.0,STARLINK-3119,PAYLOAD,2024-07-20 13:11:37,14.98330159,0.0002894,70.0016,320.0434,268.5298,91.553,-1.7113e-05,-2.97e-06,0.0,0 STARLINK-3119,1 49145U 21082R   24202.54973908 -.00000297  00000-0 -17113-4 0  9998,2 49145  70.0016 320.0434 0002894 268.5298  91.5530 14.98330159157513,6950.192,96.107,574.069,570.046,0.0
49145.0,STARLINK-3119,PAYLOAD,2024-07-20 14:47:45,14.98332795,0.0002757,70.0013,319.8749,266.4567,93.6276,8.7766e-05,9.54e-06,0.0,0 STARLINK-3119,1 49145U 21082R   24202.61649452  .00000954  00000-0  87766-4 0  9999,2 49145  70.0013 319.8749 0002757 266.4567  93.6276 14.98332795157528,6950.184,96.107,573.965,570.133,0.0
49145.0,STARLINK-3119,PAYLOAD,2024-07-20 18:00:01,14.98332614,0.0002735,70.0018,319.5385,265.9592,94.1255,0.00013273,1.491e-05,0.0,0 STARLINK-3119,1 49145U 21082R   24202.75001371  .00001491  00000-0  13273-3 0  9994,2 49145  70.0018 319.5385 0002735 265.9592  94.1255 14.98332614157549,6950.185,96.107,573.951,570.149,0.0
49145.0,STARLINK-3119,PAYLOAD,2024-07-21 13:13:38,14.9832422,0.0002753,70.0019,317.5198,267.918,92.1663,3.1433e-05,2.82e-06,0.0,0 STARLINK-3119,1 49145U 21082R   24203.55114200  .00000282  00000-0  31433-4 0  9995,2 49145  70.0019 317.5198 0002753 267.9180  92.1663 14.98324220157663,6950.211,96.107,573.989,570.162,0.0
49145.0,STARLINK-3119,PAYLOAD,2024-07-21 18:02:02,14.98328295,0.0002825,70.002,317.0156,269.6095,90.474,6.5429e-05,6.88e-06,0.0,0 STARLINK-3119,1 49145U 21082R   24203.75141904  .00000688  00000-0  65429-4 0  9990,2 49145  70.0020 317.0156 0002825 269.6095  90.4740 14.98328295157694,6950.198,96.107,574.027,570.1,0.0
49145.0,STARLINK-3119,PAYLOAD,2024-07-22 10:03:23,14.98328926,0.0002814,70.0019,315.3323,270.7973,89.2864,0.00013706,1.543e-05,0.0,0 STARLINK-3119,1 49145U 21082R   24204.41901665  .00001543  00000-0  13706-3 0  9993,2 49145  70.0019 315.3323 0002814 270.7973  89.2864 14.98328926157790,6950.196,96.107,574.017,570.105,0.0
49145.0,STARLINK-3119,PAYLOAD,2024-07-23 13:17:40,14.98331545,0.0002916,70.0013,312.47,269.2809,90.8016,8.6795e-05,9.43e-06,0.0,0 STARLINK-3119,1 49145U 21082R   24205.55393520  .00000943  00000-0  86795-4 0  9996,2 49145  70.0013 312.4700 0002916 269.2809  90.8016 14.98331545157962,6950.188,96.107,574.08,570.026,0.0
49145.0,STARLINK-3119,PAYLOAD,2024-07-24 10:07:25,14.98329931,0.0003014,69.9999,310.28,264.6247,95.4568,-3.0181e-05,-4.53e-06,0.0,0 STARLINK-3119,1 49145U 21082R   24206.42181876 -.00000453  00000-0 -30181-4 0  9998,2 49145  69.9999 310.2800 0003014 264.6247  95.4568 14.98329931158098,6950.193,96.107,574.153,569.963,0.0
49145.0,STARLINK-3119,PAYLOAD,2024-07-24 16:31:57,14.98331018,0.0002939,69.9998,309.6063,263.0779,97.0046,-1.9919e-05,-3.31e-06,0.0,0 STARLINK-3119,1 49145U 21082R   24206.68885764 -.00000331  00000-0 -19919-4 0  9994,2 49145  69.9998 309.6063 0002939 263.0779  97.0046 14.98331018158131,6950.19,96.107,574.097,570.012,0.0
49145.0,STARLINK-3119,PAYLOAD,2024-07-25 06:57:09,14.98328922,0.0002993,69.9998,308.0918,262.9111,97.1707,5.8993e-05,6.11e-06,0.0,0 STARLINK-3119,1 49145U 21082R   24207.28969640  .00000611  00000-0  58993-4 0  9991,2 49145  69.9998 308.0918 0002993 262.9111  97.1707 14.98328922158226,6950.196,96.107,574.141,569.981,0.0
49145.0,STARLINK-3119,PAYLOAD,2024-07-25 10:09:25,14.98329633,0.0002986,69.9998,307.7546,261.3171,98.765,6.7747e-05,7.15e-06,0.0,0 STARLINK-3119,1 49145U 21082R   24207.42321572  .00000715  00000-0  67747-4 0  9995,2 49145  69.9998 307.7546 0002986 261.3171  98.7650 14.98329633158246,6950.194,96.107,574.134,569.984,0.0
49145.0,STARLINK-3119,PAYLOAD,2024-07-26 05:23:02,14.98334074,0.0003034,69.9997,305.7344,263.8731,96.2082,9.5103e-05,1.042e-05,0.0,0 STARLINK-3119,1 49145U 21082R   24208.22433154  .00001042  00000-0  95103-4 0  9995,2 49145  69.9997 305.7344 0003034 263.8731  96.2082 14.98334074158363,6950.18,96.107,574.154,569.937,0.0
49145.0,STARLINK-3119,PAYLOAD,2024-07-26 10:11:26,14.98336043,0.0003099,70.0002,305.2307,268.5693,91.5111,0.0001056,1.167e-05,0.0,0 STARLINK-3119,1 49145U 21082R   24208.42460967  .00001167  00000-0  10560-3 0  9990,2 49145  70.0002 305.2307 0003099 268.5693  91.5111 14.98336043158399,6950.174,96.107,574.193,569.885,0.0
49145.0,STARLINK-3119,PAYLOAD,2024-07-26 13:23:41,14.98341463,0.000312,70.0002,304.8946,268.9954,91.0848,0.00015935,1.809e-05,0.0,0 STARLINK-3119,1 49145U 21082R   24208.55812417  .00001809  00000-0  15935-3 0  9999,2 49145  70.0002 304.8946 0003120 268.9954  91.0848 14.98341463158419,6950.157,96.106,574.191,569.854,0.0
49145.0,STARLINK-3119,PAYLOAD,2024-07-27 07:01:11,14.98321097,0.000304,70.0003,303.043,267.3632,92.7179,0.00023464,2.707e-05,0.0,0 STARLINK-3119,1 49145U 21082R   24209.29249264  .00002707  00000-0  23464-3 0  9999,2 49145  70.0003 303.0430 0003040 267.3632  92.7179 14.98321097158524,6950.22,96.108,574.198,569.973,0.0
49145.0,STARLINK-3119,PAYLOAD,2024-07-27 10:13:27,14.98330268,0.0003278,69.9996,302.7065,268.6573,91.4211,-3.5557e-05,-5.17e-06,0.0,0 STARLINK-3119,1 49145U 21082R   24209.42601469 -.00000517  00000-0 -35557-4 0  9999,2 49145  69.9996 302.7065 0003278 268.6573  91.4211 14.98330268158548,6950.192,96.107,574.335,569.779,0.0
49145.0,STARLINK-3119,PAYLOAD,2024-07-27 16:37:59,14.9833002,0.0003192,69.9995,302.0331,267.1592,92.9202,-1.9861e-05,-3.3e-06,0.0,0 STARLINK-3119,1 49145U 21082R   24209.69305435 -.00000330  00000-0 -19861-4 0  9995,2 49145  69.9995 302.0331 0003192 267.1592  92.9202 14.98330020158582,6950.193,96.107,574.276,569.839,0.0
49145.0,STARLINK-3119,PAYLOAD,2024-07-28 13:27:44,14.98338204,0.0003151,69.9995,299.8441,269.9016,90.1782,6.7035e-06,-1.3e-07,0.0,0 STARLINK-3119,1 49145U 21082R   24210.56092694 -.00000013  00000-0  67035-5 0  9997,2 49145  69.9995 299.8441 0003151 269.9016  90.1782 14.98338204158713,6950.168,96.106,574.223,569.843,0.0
